STARLINK-37724          
1 69218U 26115H   26163.29253745 -.00601391  00000+0 -34881-2 0  9993
2 69218  97.2836 180.5043 0003275 125.3012 234.8562 15.79984678  3912
STARLINK-37758          
1 69219U 26115J   26163.28937050 -.00346972  00000+0 -19627-2 0  9993
2 69219  97.2831 180.5089 0002784 195.5352 164.5831 15.79905564  3913
STARLINK-37201          
1 69220U 26115K   26163.29052660 -.00465681  00000+0 -26326-2 0  9994
2 69220  97.2832 180.5079 0004007 118.2704 241.8969 15.80203386  3914
STARLINK-37728          
1 69221U 26115L   26162.84495984 -.00454417  00000+0 -25508-2 0  9991
2 69221  97.2829 180.0422 0001165  94.3689 265.7712 15.80352669  3848
STARLINK-37760          
1 69222U 26115M   26163.29074732  .00208882  00000+0  10606-2 0  9990
2 69222  97.2833 180.5083 0001586  85.2709 274.8740 15.80912772  3918
STARLINK-37759          
1 69223U 26115N   26163.25003472 -.02579003  00000+0 -27640-1 0  9995
2 69223  97.2839 180.4453 0001347  73.9701  14.4113 15.67289938  3903
STARLINK-37725          
1 69224U 26115P   26162.90794973  .00065735  00000+0  34123-3 0  9994
2 69224  97.2831 180.1139 0001923  42.0646 318.0770 15.80822011  3855
STARLINK-37770          
1 69225U 26115Q   26163.09855955  .00153456  00000+0  78698-3 0  9997
2 69225  97.2833 180.3088 0000884 115.1140 245.0220 15.80841274  3883
STARLINK-37736          
1 69226U 26115R   26163.28796089 -.01135952  00000+0 -70684-2 0  9991
2 69226  97.2831 180.5106 0000833 134.9216 225.2119 15.79391252  3917
STARLINK-37737          
1 69227U 26115S   26163.22245122  .00183467  00000+0  93515-3 0  9993
2 69227  97.2831 180.4464 0001041  79.1242 281.0143 15.80895792  3901
STARLINK-37618          
1 69228U 26115T   26163.25003472 -.02579302  00000+0 -28969-1 0  9997
2 69228  97.2841 180.4511 0001431  77.8539  25.0298 15.66136878  3907
STARLINK-37679          
1 69229U 26115U   26163.25003472 -.02606161  00000+0 -28534-1 0  9990
2 69229  97.2839 180.4525 0001126  81.2147  24.8832 15.66809103  3904
STARLINK-37746          
1 69230U 26115V   26163.25003472 -.02788708  00000+0 -32372-1 0  9995
2 69230  97.2837 180.4423 0001434  56.2944  25.3795 15.65639409  3903
STARLINK-37557          
1 69231U 26115W   26163.25003472 -.02506242  00000+0 -38596-1 0  9991
2 69231  97.2846 180.4143 0001230 100.0938 264.5970 15.57950798  3908
STARLINK-37745          
1 69232U 26115X   26163.21458260  .00293464  00000+0  14748-2 0  9996
2 69232  97.2825 180.4576 0000652 120.6249 239.5084 15.80920358  3909
STARLINK-37739          
1 69233U 26115Y   26163.25003472 -.02642671  00000+0 -30558-1 0  9990
2 69233  97.2835 180.4346 0001670  60.6452   1.0489 15.65507144  3904
STARLINK-37755          
1 69234U 26115Z   26163.30373879  .00132556  00000+0  87136-3 0  9996
2 69234  97.2841 180.4902 0002649 103.1988 256.9573 15.75306827  3916
TJS-24                  
1 69235U 26116A   26163.14011634 -.00000215  00000+0  00000+0 0  9996
2 69235   0.0159 257.5864 0000492 165.1006 338.5244  1.00269539   175
STARLINK-37665          
1 69238U 26117A   26163.25460131  .00183524  00000+0  86538-3 0  9990
2 69238  53.1590 268.3821 0000679  67.8202 292.2893 15.82048561  2197
STARLINK-37558          
1 69239U 26117B   26163.25365075  .00264898  00000+0  12340-2 0  9995
2 69239  53.1587 268.3754 0000976  61.4201 298.6920 15.82081101  2196
STARLINK-37680          
1 69240U 26117C   26163.25221154  .00163367  00000+0  77284-3 0  9994
2 69240  53.1589 268.3652 0000823  88.0327 272.0791 15.82039229  2198
STARLINK-37742          
1 69241U 26117D   26163.25042741  .00152665  00000+0  72330-3 0  9994
2 69241  53.1589 268.3542 0001085  37.4364 322.6735 15.82040130  2190
STARLINK-37718          
1 69242U 26117E   26163.24919374  .00127800  00000+0  60816-3 0  9998
2 69242  53.1590 268.3457 0000928  64.7567 295.3552 15.82026892  2193
STARLINK-37735          
1 69243U 26117F   26163.24908357  .00163110  00000+0  77200-3 0  9997
2 69243  53.1589 268.3443 0000627 128.1240 231.9840 15.82029414  2195
STARLINK-37757          
1 69244U 26117G   26163.24668968  .00169893  00000+0  80339-3 0  9990
2 69244  53.1587 268.3284 0001306  12.2056 347.8998 15.82027902  2191
STARLINK-37767          
1 69245U 26117H   26163.24242552  .00145303  00000+0  69072-3 0  9999
2 69245  53.1583 268.2993 0001199  82.7087 277.4072 15.81991591  2194
STARLINK-35759          
1 69246U 26117J   26163.24174018  .00101691  00000+0  48658-3 0  9990
2 69246  53.1584 268.2947 0001984  21.8306 338.2801 15.82003390  2193
STARLINK-37238          
1 69247U 26117K   26163.23729761  .00161268  00000+0  76353-3 0  9990
2 69247  53.1582 268.2631 0000914  56.0067 304.1043 15.82028110  2195
STARLINK-37412          
1 69248U 26117L   26163.25003472  .00160730  00000+0  76425-3 0  9990
2 69248  53.1591 268.1597 0000954  63.9839  27.8846 15.81937712  3449
