OBJECT_NAME,OBJECT_ID,EPOCH,MEAN_MOTION,ECCENTRICITY,INCLINATION,RA_OF_ASC_NODE,ARG_OF_PERICENTER,MEAN_ANOMALY,EPHEMERIS_TYPE,CLASSIFICATION_TYPE,NORAD_CAT_ID,ELEMENT_SET_NO,REV_AT_EPOCH,BSTAR,MEAN_MOTION_DOT,MEAN_MOTION_DDOT
STARLINK-37724,2026-115H,2026-06-12T07:01:15.235680,15.79984678,.00032758,97.2836,180.5043,125.3012,234.8562,0,U,69218,999,391,-.34881133E-2,-.601391E-2,0
STARLINK-37758,2026-115J,2026-06-12T06:56:41.611200,15.79905564,.00027846,97.2831,180.5089,195.5352,164.5831,0,U,69219,999,391,-.19626504E-2,-.346972E-2,0
STARLINK-37201,2026-115K,2026-06-12T06:58:21.498240,15.80203386,.0004007,97.2832,180.5079,118.2704,241.8969,0,U,69220,999,391,-.2632583E-2,-.465681E-2,0
STARLINK-37728,2026-115L,2026-06-11T20:16:44.530176,15.80352669,.00011655,97.2829,180.0422,94.3689,265.7712,0,U,69221,999,384,-.2550776E-2,-.454417E-2,0
STARLINK-37760,2026-115M,2026-06-12T06:58:40.568448,15.80912772,.00015861,97.2833,180.5083,85.2709,274.8740,0,U,69222,999,391,.10606435E-2,.208882E-2,0
STARLINK-37759,2026-115N,2026-06-12T06:00:02.999808,15.67289938,.00013473,97.2839,180.4453,73.9701,14.4113,0,U,69223,999,390,-.27640232E-1,-.2579003E-1,0
STARLINK-37725,2026-115P,2026-06-11T21:47:26.856672,15.80822011,.00019239,97.2831,180.1139,42.0646,318.0770,0,U,69224,999,385,.34123097E-3,.65735E-3,0
STARLINK-37770,2026-115Q,2026-06-12T02:21:55.545120,15.80841274,.00008844,97.2833,180.3088,115.1140,245.0220,0,U,69225,999,388,.78697508E-3,.153456E-2,0
STARLINK-37736,2026-115R,2026-06-12T06:54:39.820896,15.79391252,.00008332,97.2831,180.5106,134.9216,225.2119,0,U,69226,999,391,-.70684476E-2,-.1135952E-1,0
STARLINK-37737,2026-115S,2026-06-12T05:20:19.785408,15.80895792,.00010412,97.2831,180.4464,79.1242,281.0143,0,U,69227,999,390,.93515386E-3,.183467E-2,0
STARLINK-37618,2026-115T,2026-06-12T06:00:02.999808,15.66136878,.00014314,97.2841,180.4511,77.8539,25.0298,0,U,69228,999,390,-.28968866E-1,-.2579302E-1,0
STARLINK-37679,2026-115U,2026-06-12T06:00:02.999808,15.66809103,.00011264,97.2839,180.4525,81.2147,24.8832,0,U,69229,999,390,-.28533729E-1,-.2606161E-1,0
STARLINK-37746,2026-115V,2026-06-12T06:00:02.999808,15.65639409,.00014344,97.2837,180.4423,56.2944,25.3795,0,U,69230,999,390,-.32371738E-1,-.2788708E-1,0
STARLINK-37557,2026-115W,2026-06-12T06:00:02.999808,15.57950798,.000123,97.2846,180.4143,100.0938,264.5970,0,U,69231,999,390,-.38595744E-1,-.2506242E-1,0
STARLINK-37745,2026-115X,2026-06-12T05:08:59.936640,15.80920358,.00006523,97.2825,180.4576,120.6249,239.5084,0,U,69232,999,390,.14747851E-2,.293464E-2,0
STARLINK-37739,2026-115Y,2026-06-12T06:00:02.999808,15.65507144,.00016705,97.2835,180.4346,60.6452,1.0489,0,U,69233,999,390,-.30557737E-1,-.2642671E-1,0
STARLINK-37755,2026-115Z,2026-06-12T07:17:23.031456,15.75306827,.00026499,97.2841,180.4902,103.1988,256.9573,0,U,69234,999,391,.87135538E-3,.132556E-2,0
TJS-24,2026-116A,2026-06-12T03:21:46.051776,1.00269539,.0000492,0.0159,257.5864,165.1006,338.5244,0,U,69235,999,17,0,-.215E-5,0
STARLINK-37665,2026-117A,2026-06-12T06:06:37.553184,15.82048561,.00006792,53.1590,268.3821,67.8202,292.2893,0,U,69238,999,219,.86537502E-3,.183524E-2,0
STARLINK-37558,2026-117B,2026-06-12T06:05:15.424800,15.82081101,.00009763,53.1587,268.3754,61.4201,298.6920,0,U,69239,999,219,.12339827E-2,.264898E-2,0
STARLINK-37680,2026-117C,2026-06-12T06:03:11.077056,15.82039229,.00008234,53.1589,268.3652,88.0327,272.0791,0,U,69240,999,219,.77284027E-3,.163367E-2,0
STARLINK-37742,2026-117D,2026-06-12T06:00:36.928224,15.82040130,.00010858,53.1589,268.3542,37.4364,322.6735,0,U,69241,999,219,.72329607E-3,.152665E-2,0
STARLINK-37718,2026-117E,2026-06-12T05:58:50.339136,15.82026892,.00009287,53.1590,268.3457,64.7567,295.3552,0,U,69242,999,219,.60816423E-3,.1278E-2,0
STARLINK-37735,2026-117F,2026-06-12T05:58:40.820448,15.82029414,.00006277,53.1589,268.3443,128.1240,231.9840,0,U,69243,999,219,.77200055E-3,.16311E-2,0
STARLINK-37757,2026-117G,2026-06-12T05:55:13.988352,15.82027902,.00013065,53.1587,268.3284,12.2056,347.8998,0,U,69244,999,219,.80338917E-3,.169893E-2,0
STARLINK-37767,2026-117H,2026-06-12T05:49:05.564928,15.81991591,.00011999,53.1583,268.2993,82.7087,277.4072,0,U,69245,999,219,.69072401E-3,.145303E-2,0
STARLINK-35759,2026-117J,2026-06-12T05:48:06.351552,15.82003390,.00019846,53.1584,268.2947,21.8306,338.2801,0,U,69246,999,219,.48657927E-3,.101691E-2,0
STARLINK-37238,2026-117K,2026-06-12T05:41:42.513504,15.82028110,.00009146,53.1582,268.2631,56.0067,304.1043,0,U,69247,999,219,.76353493E-3,.161268E-2,0
STARLINK-37412,2026-117L,2026-06-12T06:00:02.999808,15.81937712,.00009542,53.1591,268.1597,63.9839,27.8846,0,U,69248,999,344,.76424888E-3,.16073E-2,0
